{"type": "FeatureCollection", "features": [ {"type": "Feature", "properties": {"norad_id": 65077, "name": "CREW DRAGON 11", "group": "stations", "lat": 51.35680491670922, "lon": -117.725029950067, "alt_km": 413.00912466329373, "timestamp": "2025-12-09T04:51:46.308003+00:00", "meta": {"OBJECT_NAME": "CREW DRAGON 11", "OBJECT_ID": "2025-166A", "EPOCH": "2025-12-08T13:01:02.621280", "MEAN_MOTION": 15.49420853, "ECCENTRICITY": 0.00033936, "INCLINATION": 51.6307, "RA_OF_ASC_NODE": 163.2617, "ARG_OF_PERICENTER": 220.7658, "MEAN_ANOMALY": 139.3077, "EPHEMERIS_TYPE": 0, "CLASSIFICATION_TYPE": "U", "NORAD_CAT_ID": 65077, "ELEMENT_SET_NO": 999, "REV_AT_EPOCH": 214, "BSTAR": 0.00023027995, "MEAN_MOTION_DOT": 0.00012445, "MEAN_MOTION_DDOT": 0}, "tle": {"line1": "1 65077U 25166A   25342.54239145  .00012445  00000+0  23028-3 0  9997", "line2": "2 65077  51.6307 163.2617 0003393 220.7658 139.3077 15.49420853  2141"}}, "geometry": {"type": "Point", "coordinates": [-117.725029950067, 51.35680491670922]}}, {"type": "Feature", "properties": {"norad_id": 65304, "name": "DRAGON CRS-33", "group": "stations", "lat": 51.35680499838552, "lon": -117.7250287149001, "alt_km": 413.00912463128407, "timestamp": "2025-12-09T04:51:46.308015+00:00", "meta": {"OBJECT_NAME": "DRAGON CRS-33", "OBJECT_ID": "2025-186A", "EPOCH": "2025-12-08T13:01:02.621280", "MEAN_MOTION": 15.49420853, "ECCENTRICITY": 0.00033936, "INCLINATION": 51.6307, "RA_OF_ASC_NODE": 163.2617, "ARG_OF_PERICENTER": 220.7658, "MEAN_ANOMALY": 139.3077, "EPHEMERIS_TYPE": 0, "CLASSIFICATION_TYPE": "U", "NORAD_CAT_ID": 65304, "ELEMENT_SET_NO": 999, "REV_AT_EPOCH": 11, "BSTAR": 0.00023027995, "MEAN_MOTION_DOT": 0.00012445, "MEAN_MOTION_DDOT": 0}, "tle": {"line1": "1 65304U 25186A   25342.54239145  .00012445  00000+0  23028-3 0  9992", "line2": "2 65304  51.6307 163.2617 0003393 220.7658 139.3077 15.49420853   119"}}, "geometry": {"type": "Point", "coordinates": [-117.7250287149001, 51.35680499838552]}}, {"type": "Feature", "properties": {"norad_id": 65586, "name": "PROGRESS-MS 32", "group": "stations", "lat": 51.3568050664489, "lon": -117.72502768559723, "alt_km": 413.00912460461404, "timestamp": "2025-12-09T04:51:46.308025+00:00", "meta": {"OBJECT_NAME": "PROGRESS-MS 32", "OBJECT_ID": "2025-204A", "EPOCH": "2025-12-08T13:01:02.621280", "MEAN_MOTION": 15.49420853, "ECCENTRICITY": 0.00033936, "INCLINATION": 51.6307, "RA_OF_ASC_NODE": 163.2617, "ARG_OF_PERICENTER": 220.7658, "MEAN_ANOMALY": 139.3077, "EPHEMERIS_TYPE": 0, "CLASSIFICATION_TYPE": "U", "NORAD_CAT_ID": 65586, "ELEMENT_SET_NO": 999, "REV_AT_EPOCH": 27, "BSTAR": 0.00023027995, "MEAN_MOTION_DOT": 0.00012445, "MEAN_MOTION_DDOT": 0}, "tle": {"line1": "1 65586U 25204A   25342.54239145  .00012445  00000+0  23028-3 0  9995", "line2": "2 65586  51.6307 163.2617 0003393 220.7658 139.3077 15.49420853   278"}}, "geometry": {"type": "Point", "coordinates": [-117.72502768559723, 51.3568050664489]}}, {"type": "Feature", "properties": {"norad_id": 65616, "name": "CYGNUS NG-23", "group": "stations", "lat": 51.356805134512534, "lon": -117.72502665629041, "alt_km": 413.0091245779395, "timestamp": "2025-12-09T04:51:46.308035+00:00", "meta": {"OBJECT_NAME": "CYGNUS NG-23", "OBJECT_ID": "2025-208A", "EPOCH": "2025-12-08T13:01:02.621280", "MEAN_MOTION": 15.49420853, "ECCENTRICITY": 0.00033936, "INCLINATION": 51.6307, "RA_OF_ASC_NODE": 163.2617, "ARG_OF_PERICENTER": 220.7658, "MEAN_ANOMALY": 139.3077, "EPHEMERIS_TYPE": 0, "CLASSIFICATION_TYPE": "U", "NORAD_CAT_ID": 65616, "ELEMENT_SET_NO": 999, "REV_AT_EPOCH": 22, "BSTAR": 0.00023027995, "MEAN_MOTION_DOT": 0.00012445, "MEAN_MOTION_DDOT": 0}, "tle": {"line1": "1 65616U 25208A   25342.54239145  .00012445  00000+0  23028-3 0  9993", "line2": "2 65616  51.6307 163.2617 0003393 220.7658 139.3077 15.49420853   227"}}, "geometry": {"type": "Point", "coordinates": [-117.72502665629041, 51.356805134512534]}}, {"type": "Feature", "properties": {"norad_id": 65729, "name": "DRAGONFLY", "group": "stations", "lat": 25.014597237374957, "lon": -47.846633909603035, "alt_km": 356.0112159083319, "timestamp": "2025-12-09T04:51:46.308045+00:00", "meta": {"OBJECT_NAME": "DRAGONFLY", "OBJECT_ID": "1998-067XH", "EPOCH": "2025-12-08T17:32:47.525568", "MEAN_MOTION": 15.70229086, "ECCENTRICITY": 0.0006525, "INCLINATION": 51.6249, "RA_OF_ASC_NODE": 156.265, "ARG_OF_PERICENTER": 251.495, "MEAN_ANOMALY": 108.5339, "EPHEMERIS_TYPE": 0, "CLASSIFICATION_TYPE": "U", "NORAD_CAT_ID": 65729, "ELEMENT_SET_NO": 999, "REV_AT_EPOCH": 1253, "BSTAR": 0.0013272, "MEAN_MOTION_DOT": 0.00167478, "MEAN_MOTION_DDOT": 0}, "tle": {"line1": "1 65729U 98067XH  25342.73110562  .00167478  00000+0  13272-2 0  9999", "line2": "2 65729  51.6249 156.2650 0006525 251.4950 108.5339 15.70229086 12537"}}, "geometry": {"type": "Point", "coordinates": [-47.846633909603035, 25.014597237374957]}}, {"type": "Feature", "properties": {"norad_id": 65731, "name": "1998-067XK", "group": "stations", "lat": -45.828501678605676, "lon": 29.814217034501052, "alt_km": 374.87373148642837, "timestamp": "2025-12-09T04:51:46.308057+00:00", "meta": {"OBJECT_NAME": "1998-067XK", "OBJECT_ID": "1998-067XK", "EPOCH": "2025-12-08T12:29:14.710560", "MEAN_MOTION": 15.64682619, "ECCENTRICITY": 0.00053917, "INCLINATION": 51.6277, "RA_OF_ASC_NODE": 158.6227, "ARG_OF_PERICENTER": 219.7303, "MEAN_ANOMALY": 140.3298, "EPHEMERIS_TYPE": 0, "CLASSIFICATION_TYPE": "U", "NORAD_CAT_ID": 65731, "ELEMENT_SET_NO": 999, "REV_AT_EPOCH": 1248, "BSTAR": 0.00099222834, "MEAN_MOTION_DOT": 0.00098864, "MEAN_MOTION_DDOT": 0}, "tle": {"line1": "1 65731U 98067XK  25342.52030915  .00098864  00000+0  99223-3 0  9995", "line2": "2 65731  51.6277 158.6227 0005391 219.7303 140.3298 15.64682619 12486"}}, "geometry": {"type": "Point", "coordinates": [29.814217034501052, -45.828501678605676]}}, {"type": "Feature", "properties": {"norad_id": 65732, "name": "RSP-03", "group": "stations", "lat": -2.900179589766269, "lon": -23.16281116655547, "alt_km": 364.31053037876154, "timestamp": "2025-12-09T04:51:46.308068+00:00", "meta": {"OBJECT_NAME": "RSP-03", "OBJECT_ID": "1998-067XL", "EPOCH": "2025-12-08T18:54:04.823712", "MEAN_MOTION": 15.67324417, "ECCENTRICITY": 0.0006171, "INCLINATION": 51.626, "RA_OF_ASC_NODE": 156.6485, "ARG_OF_PERICENTER": 224.9015, "MEAN_ANOMALY": 135.1483, "EPHEMERIS_TYPE": 0, "CLASSIFICATION_TYPE": "U", "NORAD_CAT_ID": 65732, "ELEMENT_SET_NO": 999, "REV_AT_EPOCH": 1254, "BSTAR": 0.0012545, "MEAN_MOTION_DOT": 0.00139916, "MEAN_MOTION_DDOT": 0}, "tle": {"line1": "1 65732U 98067XL  25342.78755583  .00139916  00000+0  12545-2 0  9994", "line2": "2 65732  51.6260 156.6485 0006171 224.9015 135.1483 15.67324417 12545"}}, "geometry": {"type": "Point", "coordinates": [-23.16281116655547, -2.900179589766269]}}, {"type": "Feature", "properties": {"norad_id": 65733, "name": "GHS-01", "group": "stations", "lat": 20.580632001726467, "lon": 170.6719430185404, "alt_km": 351.40850230718024, "timestamp": "2025-12-09T04:51:46.308078+00:00", "meta": {"OBJECT_NAME": "GHS-01", "OBJECT_ID": "1998-067XM", "EPOCH": "2025-12-08T18:04:32.914272", "MEAN_MOTION": 15.72738443, "ECCENTRICITY": 0.000691, "INCLINATION": 51.6282, "RA_OF_ASC_NODE": 155.6685, "ARG_OF_PERICENTER": 251.9559, "MEAN_ANOMALY": 108.0687, "EPHEMERIS_TYPE": 0, "CLASSIFICATION_TYPE": "U", "NORAD_CAT_ID": 65733, "ELEMENT_SET_NO": 999, "REV_AT_EPOCH": 1255, "BSTAR": 0.0015078, "MEAN_MOTION_DOT": 0.00212788, "MEAN_MOTION_DDOT": 0}, "tle": {"line1": "1 65733U 98067XM  25342.75315873  .00212788  00000+0  15078-2 0  9999", "line2": "2 65733  51.6282 155.6685 0006910 251.9559 108.0687 15.72738443 12555"}}, "geometry": {"type": "Point", "coordinates": [170.6719430185404, 20.580632001726467]}}, {"type": "Feature", "properties": {"norad_id": 65941, "name": "YOTSUBA-KULOVER", "group": "stations", "lat": 51.396483814073605, "lon": -119.2938318707633, "alt_km": 384.7016398711339, "timestamp": "2025-12-09T04:51:46.308088+00:00", "meta": {"OBJECT_NAME": "YOTSUBA-KULOVER", "OBJECT_ID": "1998-067XN", "EPOCH": "2025-12-08T13:06:38.018304", "MEAN_MOTION": 15.58705702, "ECCENTRICITY": 0.00016718, "INCLINATION": 51.6278, "RA_OF_ASC_NODE": 161.0428, "ARG_OF_PERICENTER": 208.1564, "MEAN_ANOMALY": 151.9338, "EPHEMERIS_TYPE": 0, "CLASSIFICATION_TYPE": "U", "NORAD_CAT_ID": 65941, "ELEMENT_SET_NO": 999, "REV_AT_EPOCH": 920, "BSTAR": 0.00090838679, "MEAN_MOTION_DOT": 0.0007141, "MEAN_MOTION_DDOT": 0}, "tle": {"line1": "1 65941U 98067XN  25342.54627336  .00071410  00000+0  90839-3 0  9991", "line2": "2 65941  51.6278 161.0428 0001671 208.1564 151.9338 15.58705702  9200"}}, "geometry": {"type": "Point", "coordinates": [-119.2938318707633, 51.396483814073605]}}, {"type": "Feature", "properties": {"norad_id": 65942, "name": "BOTAN", "group": "stations", "lat": 9.919081376780486, "lon": 165.11335622755809, "alt_km": 384.00234946967066, "timestamp": "2025-12-09T04:51:46.308098+00:00", "meta": {"OBJECT_NAME": "BOTAN", "OBJECT_ID": "1998-067XP", "EPOCH": "2025-12-08T11:54:58.851072", "MEAN_MOTION": 15.61718865, "ECCENTRICITY": 0.00036467, "INCLINATION": 51.6286, "RA_OF_ASC_NODE": 160.7119, "ARG_OF_PERICENTER": 203.3745, "MEAN_ANOMALY": 156.7083, "EPHEMERIS_TYPE": 0, "CLASSIFICATION_TYPE": "U", "NORAD_CAT_ID": 65942, "ELEMENT_SET_NO": 999, "REV_AT_EPOCH": 920, "BSTAR": 0.0012042708, "MEAN_MOTION_DOT": 0.00106961, "MEAN_MOTION_DDOT": 0}, "tle": {"line1": "1 65942U 98067XP  25342.49651448  .00106961  00000+0  12043-2 0  9997", "line2": "2 65942  51.6286 160.7119 0003646 203.3745 156.7083 15.61718865  9203"}}, "geometry": {"type": "Point", "coordinates": [165.11335622755809, 9.919081376780486]}}]}